2023-059A               
1 56367U 23059A   23138.85114913  .00000047  00000+0  94849-2 0  9991
2 56367   6.9917 354.1326 1652031 233.1021 110.6116  6.85020597  1464
2023-059B               
1 56368U 23059B   23138.76801162  .00000049  00000+0  11785-1 0  9990
2 56368   7.1748 354.0575 1662970 233.1321 110.4605  6.87562621  1474
2023-059C               
1 56369U 23059C   23147.58462951  .00000044  00000+0 -32146-2 0  9991
2 56369   8.6054 341.1730 1880274 262.2552  76.1222  7.26703629  2089
VIASAT-3                
1 56370U 23060A   23145.42446394 -.00000181  00000+0  00000+0 0  9992
2 56370   0.0044 291.8025 0000661 189.3038 185.5824  1.00272485   230
ARCTURUS                
1 56371U 23060B   23146.33981519  .00000134  00000+0  00000+0 0  9994
2 56371   0.0349   9.3162 0001950  94.9315  98.8934  1.00268942   246
GS-1                    
1 56372U 23060C   23146.45854531 -.00000019  00000+0  00000+0 0  9994
2 56372   0.0963  68.4424 0008744  50.1670  87.1287  1.04510042   227
FALCON HEAVY R/B        
1 56373U 23060D   23148.05535498 -.00000062  00000+0  00000+0 0  9999
2 56373   0.1001  69.5841 0010116 158.7457 241.9540  1.04743850   273
STARLINK-6156           
1 56374U 23061A   23147.91667824 -.00866593  00000+0 -12614-1 0  9990
2 56374  42.9985 329.5789 0001400 271.9410 353.1694 15.57393305  1302
STARLINK-6158           
1 56375U 23061B   23148.58334491 -.00939551  00000+0 -14446-1 0  9996
2 56375  42.9982 325.6386 0001435 267.3649 139.9768 15.56147848  4113
STARLINK-6188           
1 56376U 23061C   23147.91667824 -.00867549  00000+0 -12626-1 0  9997
2 56376  42.9987 329.5771 0001416 274.2611 351.5983 15.57399936  1302
STARLINK-6189           
1 56377U 23061D   23148.58334491 -.00940235  00000+0 -14454-1 0  9998
2 56377  42.9982 325.6369 0001446 265.7769 142.3279 15.56154382  4119
STARLINK-6191           
1 56378U 23061E   23148.58334491 -.00940827  00000+0 -14451-1 0  9993
2 56378  42.9982 325.6296 0001439 271.7026 139.4555 15.56178526  4114
STARLINK-6157           
1 56379U 23061F   23148.58334491 -.00939747  00000+0 -14443-1 0  9994
2 56379  42.9982 325.6351 0001426 265.2280 143.6408 15.56159596  4113
STARLINK-6161           
1 56380U 23061G   23148.58334491 -.00941009  00000+0 -14457-1 0  9995
2 56380  42.9981 325.6313 0001457 268.8754 141.5190 15.56172988  4116
STARLINK-6159           
1 56381U 23061H   23148.58334491 -.00940935  00000+0 -14459-1 0  9995
2 56381  42.9982 325.6329 0001459 266.3941 143.2371 15.56166956  4116
STARLINK-6160           
1 56382U 23061J   23148.58334491 -.00941400  00000+0 -14454-1 0  9999
2 56382  42.9981 325.6254 0001444 270.4852 142.1990 15.56190856  4115
STARLINK-6166           
1 56383U 23061K   23148.58334491 -.00941087  00000+0 -14452-1 0  9999
2 56383  42.9983 325.6272 0001444 267.1951 144.7260 15.56184773  4110
STARLINK-6153           
1 56384U 23061L   23148.58334491 -.00941499  00000+0 -14446-1 0  9990
2 56384  42.9981 325.6200 0001438 268.1389 146.8342 15.56208782  4110
STARLINK-6173           
1 56385U 23061M   23148.58334491 -.00941249  00000+0 -14448-1 0  9996
2 56385  42.9983 325.6237 0001462 268.4278 145.0190 15.56197078  4117
STARLINK-5836           
1 56386U 23061N   23148.58334491 -.00941895  00000+0 -14446-1 0  9992
2 56386  42.9982 325.6161 0001444 271.1690 145.3294 15.56221114  4119
STARLINK-6178           
1 56387U 23061P   23148.58334491 -.00941505  00000+0 -14449-1 0  9994
2 56387  42.9982 325.6216 0001466 269.7238 144.4859 15.56203215  4115
STARLINK-6176           
1 56388U 23061Q   23148.58334491 -.00942358  00000+0 -14444-1 0  9997
2 56388  42.9982 325.6105 0001448 273.5225 145.2638 15.56239251  4115
STARLINK-6145           
1 56389U 23061R   23148.58334491 -.00941326  00000+0 -14440-1 0  9998
2 56389  42.9980 325.6178 0001437 264.6544 151.0818 15.56214471  4119
STARLINK-6300           
1 56390U 23061S   23148.21747468  .00000325  00000+0  59240-5 0  9996
2 56390  42.9988 327.2880 0001877 260.5029  99.5626 15.71358858  4060
STARLINK-6298           
1 56391U 23061T   23147.91667824 -.00869844  00000+0 -12622-1 0  9990
2 56391  42.9984 329.5509 0001468 276.4109 359.9317 15.57484340  1305
STARLINK-6301           
1 56392U 23061U   23148.21757923  .00000981  00000+0  10930-4 0  9995
2 56392  42.9984 327.2900 0001988 280.8438  79.2206 15.71354265  4060
STARLINK-6303           
1 56393U 23061V   23147.91667824 -.00865073  00000+0 -12545-1 0  9996
2 56393  42.9985 329.5491 0001400 274.3792   2.7122 15.57487612  1301
STARLINK-6305           
1 56394U 23061W   23147.77222210  .00000731  00000+0  90222-5 0  9999
2 56394  42.9985 329.9700 0002130 270.8884  89.1740 15.71354858  3705
STARLINK-6273           
1 56395U 23061X   23148.21726461 -.00000085  00000+0  28026-5 0  9993
2 56395  42.9987 327.2874 0001893 275.1256  84.9396 15.71350077  4066
STARLINK-6302           
1 56396U 23061Y   23147.83557636  .00002081  00000+0  19317-4 0  9996
2 56396  42.9992 329.5869 0002120 286.3016  73.7619 15.71354984  3710
STARLINK-6271           
1 56397U 23061Z   23147.96311815  .00005556  00000+0  45779-4 0  9999
2 56397  42.9987 328.8223 0002013 269.0184  91.0453 15.71360547  4022
STARLINK-6288           
1 56398U 23061AA  23147.83547104  .00002403  00000+0  21771-4 0  9992
2 56398  42.9985 329.5853 0002390 286.5460  73.5145 15.71355452  3714
STARLINK-6277           
1 56399U 23061AB  23148.21703749 -.00013327  00000+0 -98248-4 0  9997
2 56399  42.9990 327.2851 0001897 267.4877  92.5773 15.71375920  4064
STARLINK-6267           
1 56400U 23061AC  23148.21663254  .00001280  00000+0  13206-4 0  9990
2 56400  42.9988 327.2837 0002042 281.2479  78.8159 15.71354758  4064
STARLINK-6256           
1 56401U 23061AD  23148.21642278 -.00000060  00000+0  29921-5 0  9992
2 56401  42.9993 327.2813 0002276 279.2345  80.8266 15.71350949  4063
STARLINK-6269           
1 56402U 23061AE  23147.83494291  .00002840  00000+0  25097-4 0  9996
2 56402  42.9991 329.5797 0002233 257.5170 102.5448 15.71355628  3710
STARLINK-6284           
1 56403U 23061AF  23147.89892605  .00002418  00000+0  21881-4 0  9992
2 56403  42.9985 329.2003 0002075 271.4730  88.5900 15.71357636  3720
STARLINK-6287           
1 56404U 23061AG  23148.21610493  .00002092  00000+0  19397-4 0  9990
2 56404  42.9991 327.2800 0002107 273.5840  86.4786 15.71357610  4061
STARLINK-6285           
1 56405U 23061AH  23147.83515613  .00003128  00000+0  27290-4 0  9998
2 56405  42.9990 329.5829 0001905 274.0074  86.0576 15.71359116  3714
STARLINK-6283           
1 56406U 23061AJ  23148.21579168  .00025112  00000+0  19430-3 0  9990
2 56406  42.9983 327.2747 0001959 267.4227  92.6416 15.71362825  4062
STARLINK-6282           
1 56407U 23061AK  23148.21621050  .00004725  00000+0  39465-4 0  9997
2 56407  42.9995 327.2812 0002543 281.2589  78.7993 15.71355024  4062
STARLINK-6289           
1 56408U 23061AL  23148.21568681  .00000302  00000+0  57497-5 0  9991
2 56408  42.9988 327.2746 0001908 271.5338  88.5311 15.71351716  4066
STARLINK-6241           
1 56409U 23061AM  23148.21600066  .00001391  00000+0  14061-4 0  9994
2 56409  42.9991 327.2785 0002469 270.9013  89.1572 15.71354641  4066
STARLINK-6281           
1 56410U 23061AN  23148.21547864 -.00000954  00000+0 -38259-5 0  9994
2 56410  42.9986 327.2736 0001941 280.9129  79.1521 15.71348350  4064
STARLINK-6279           
1 56411U 23061AP  23148.21589891  .00000050  00000+0  38333-5 0  9999
2 56411  42.9991 327.2774 0002193 278.1173  81.9446 15.71351124  4061
STARLINK-6278           
1 56412U 23061AQ  23148.21526599 -.00000254  00000+0  15155-5 0  9990
2 56412  42.9984 327.2712 0001998 272.5668  87.4971 15.71350907  4067
STARLINK-6258           
1 56413U 23061AR  23148.21558200 -.00000417  00000+0  27014-6 0  9994
2 56413  43.0007 327.2731 0002105 271.4694  88.5933 15.71353296  4069
STARLINK-5136           
1 56414U 23061AS  23148.21505511  .00000059  00000+0  39020-5 0  9992
2 56414  42.9987 327.2703 0002127 278.3560  81.7067 15.71352087  4066
STARLINK-6268           
1 56415U 23061AT  23148.21537123  .00025305  00000+0  19574-3 0  9998
2 56415  42.9979 327.2726 0001958 272.0027  88.0616 15.71365804  4064
STARLINK-6260           
1 56416U 23061AU  23148.21484358  .00013629  00000+0  10717-3 0  9996
2 56416  42.9987 327.2688 0002013 271.8734  88.1903 15.71362654  4066
STARLINK-6261           
1 56417U 23061AV  23148.21515900  .00007733  00000+0  62354-4 0  9999
2 56417  42.9989 327.2702 0002018 274.3907  85.6730 15.71358525  4063
STARLINK-5356           
1 56418U 23061AW  23148.21463612 -.00000430  00000+0  17271-6 0  9990
2 56418  42.9987 327.2663 0001937 274.8695  85.1951 15.71349900  4063
STARLINK-5350           
1 56419U 23061AX  23148.21495105  .00002039  00000+0  18996-4 0  9992
2 56419  42.9986 327.2697 0002076 278.4775  81.5857 15.71349942  4065
STARLINK-6272           
1 56420U 23061AY  23148.21452876  .00001580  00000+0  15494-4 0  9992
2 56420  42.9987 327.2662 0002174 273.3115  86.7504 15.71354464  4062
STARLINK-6270           
1 56421U 23061AZ  23148.21473903  .00003542  00000+0  30447-4 0  9992
2 56421  42.9986 327.2678 0002101 273.2475  86.8152 15.71356250  4062
STARLINK-6236           
1 56422U 23061BA  23148.21432047  .00002471  00000+0  22291-4 0  9995
2 56422  42.9983 327.2633 0001887 269.4717  90.5935 15.71347667  4060
STARLINK-6239           
1 56423U 23061BB  23147.83304979  .00002448  00000+0  22111-4 0  9990
2 56423  42.9986 329.5642 0002377 261.6886  98.3712 15.71356016  3713
STARLINK-6242           
1 56424U 23061BC  23148.21410819  .00000982  00000+0  10943-4 0  9996
2 56424  42.9989 327.2635 0002273 276.9684  83.0925 15.71353422  4068
STARLINK-6224           
1 56425U 23061BD  23148.21421287  .00001096  00000+0  11813-4 0  9992
2 56425  42.9988 327.2641 0002346 272.6660  87.3940 15.71353996  4063
